[{"OBJECT_NAME":"STARLINK-4303","OBJECT_ID":"2022-101T","EPOCH":"2026-03-09T05:23:41.760096","MEAN_MOTION":15.08836273,"ECCENTRICITY":0.0001366,"INCLINATION":53.2179,"RA_OF_ASC_NODE":66.2102,"ARG_OF_PERICENTER":95.7159,"MEAN_ANOMALY":264.3989,"EPHEMERIS_TYPE":0,"CLASSIFICATION_TYPE":"U","NORAD_CAT_ID":53544,"ELEMENT_SET_NO":999,"REV_AT_EPOCH":19690,"BSTAR":2.7006e-6,"MEAN_MOTION_DOT":-2.45e-6,"MEAN_MOTION_DDOT":0},{"OBJECT_NAME":"NOAA 17 DEB","OBJECT_ID":"2002-032AW","EPOCH":"2026-03-09T06:42:02.833344","MEAN_MOTION":15.0155296,"ECCENTRICITY":0.0036655,"INCLINATION":98.9692,"RA_OF_ASC_NODE":191.508,"ARG_OF_PERICENTER":264.8759,"MEAN_ANOMALY":94.8277,"EPHEMERIS_TYPE":0,"CLASSIFICATION_TYPE":"U","NORAD_CAT_ID":48713,"ELEMENT_SET_NO":999,"REV_AT_EPOCH":26502,"BSTAR":0.0031489084,"MEAN_MOTION_DOT":0.00041514,"MEAN_MOTION_DDOT":0}]
